$$SOE
2459580.500000000, A.D. 2022-Jan-01 00:00:00.0000, -6.072279903005449E+08, 2.063274477745213E+08, 3.580842786034386E+07,
2459587.500000000, A.D. 2022-Jan-08 00:00:00.0000, -6.092570298971064E+08, 2.006318615588446E+08, 3.599949797444025E+07,
2459594.500000000, A.D. 2022-Jan-15 00:00:00.0000, -6.111745863520018E+08, 1.948995511230403E+08, 3.618397815492439E+07,
2459601.500000000, A.D. 2022-Jan-22 00:00:00.0000, -6.129803396056713E+08, 1.891315758541440E+08, 3.636183631758440E+07,
2459608.500000000, A.D. 2022-Jan-29 00:00:00.0000, -6.146739579297895E+08, 1.833289936762360E+08, 3.653303983358541E+07,
2459615.500000000, A.D. 2022-Feb-05 00:00:00.0000, -6.162550999182111E+08, 1.774928610825968E+08, 3.669755565577846E+07,
2459622.500000000, A.D. 2022-Feb-12 00:00:00.0000, -6.177234143024908E+08, 1.716242321004209E+08, 3.685535015987305E+07,
2459629.500000000, A.D. 2022-Feb-19 00:00:00.0000, -6.190785389153910E+08, 1.657241585579379E+08, 3.700638901539401E+07,
2459636.500000000, A.D. 2022-Feb-26 00:00:00.0000, -6.203201001131252E+08, 1.597936909315951E+08, 3.715063714735243E+07,
2459643.500000000, A.D. 2022-Mar-05 00:00:00.0000, -6.214477124968318E+08, 1.538338791573291E+08, 3.728805872330026E+07,
2459650.500000000, A.D. 2022-Mar-12 00:00:00.0000, -6.224609787112877E+08, 1.478457733412885E+08, 3.741861713972735E+07,
2459657.500000000, A.D. 2022-Mar-19 00:00:00.0000, -6.233594892497412E+08, 1.418304243992820E+08, 3.754227500324606E+07,
2459664.500000000, A.D. 2022-Mar-26 00:00:00.0000, -6.241428222424755E+08, 1.357888846204428E+08, 3.765899410371760E+07,
2459671.500000000, A.D. 2022-Apr-02 00:00:00.0000, -6.248105431612735E+08, 1.297222081008761E+08, 3.776873536825577E+07,
2459678.500000000, A.D. 2022-Apr-09 00:00:00.0000, -6.253622041675593E+08, 1.236314510538045E+08, 3.787145877131237E+07,
2459685.500000000, A.D. 2022-Apr-16 00:00:00.0000, -6.257973427467787E+08, 1.175176726519330E+08, 3.796712322133020E+07,
2459692.500000000, A.D. 2022-Apr-23 00:00:00.0000, -6.261154808975933E+08, 1.113819374878155E+08, 3.805568662879302E+07,
2459699.500000000, A.D. 2022-Apr-30 00:00:00.0000, -6.263161267461876E+08, 1.052253174085291E+08, 3.813710614361472E+07,
2459706.500000000, A.D. 2022-May-07 00:00:00.0000, -6.263987755230105E+08, 9.904889075312248E+07, 3.821133811959951E+07,
2459713.500000000, A.D. 2022-May-14 00:00:00.0000, -6.263629085117331E+08, 9.285374203293608E+07, 3.827833792675236E+07,
2459720.500000000, A.D. 2022-May-21 00:00:00.0000, -6.262079920007823E+08, 8.664096281489271E+07, 3.833805985967234E+07,
2459727.500000000, A.D. 2022-May-28 00:00:00.0000, -6.259334767161996E+08, 8.041165285049883E+07, 3.839045710755670E+07,
2459734.500000000, A.D. 2022-Jun-04 00:00:00.0000, -6.255387974587114E+08, 7.416692113964620E+07, 3.843548173482952E+07,
2459741.500000000, A.D. 2022-Jun-11 00:00:00.0000, -6.250233728001064E+08, 6.790788693348032E+07, 3.847308465931705E+07,
2459748.500000000, A.D. 2022-Jun-18 00:00:00.0000, -6.243866047999130E+08, 6.163568069177000E+07, 3.850321562553063E+07,
2459755.500000000, A.D. 2022-Jun-25 00:00:00.0000, -6.236278787126372E+08, 5.535144496383931E+07, 3.852582316769001E+07,
2459762.500000000, A.D. 2022-Jul-02 00:00:00.0000, -6.227465625512452E+08, 4.905633512967663E+07, 3.854085454488570E+07,
2459769.500000000, A.D. 2022-Jul-09 00:00:00.0000, -6.217420061163303E+08, 4.275152018062779E+07, 3.854825562713391E+07,
2459776.500000000, A.D. 2022-Jul-16 00:00:00.0000, -6.206135395457892E+08, 3.643818462490899E+07, 3.854797082597881E+07,
2459783.500000000, A.D. 2022-Jul-23 00:00:00.0000, -6.193604735833168E+08, 3.011753159797050E+07, 3.853994327777297E+07,
2459790.500000000, A.D. 2022-Jul-30 00:00:00.0000, -6.179821014821095E+08, 2.379078382635859E+07, 3.852411499803089E+07,
2459797.500000000, A.D. 2022-Aug-06 00:00:00.0000, -6.164776989451743E+08, 1.745918309639595E+07, 3.850042672995913E+07,
2459804.500000000, A.D. 2022-Aug-13 00:00:00.0000, -6.148465229248073E+08, 1.112399098519391E+07, 3.846881778797112E+07,
2459811.500000000, A.D. 2022-Aug-20 00:00:00.0000, -6.130878108503541E+08, 4.786490353333829E+06, 3.842922599917518E+07,
2459818.500000000, A.D. 2022-Aug-27 00:00:00.0000, -6.112007802165453E+08, -1.552013124299554E+06, 3.838158767740209E+07,
2459825.500000000, A.D. 2022-Sep-03 00:00:00.0000, -6.091846282849846E+08, -7.890189496532595E+06, 3.832583759817084E+07,
2459832.500000000, A.D. 2022-Sep-10 00:00:00.0000, -6.070385318090836E+08, -1.422668311498604E+07, 3.826190896840455E+07,
2459839.500000000, A.D. 2022-Sep-17 00:00:00.0000, -6.047616467533898E+08, -2.056011125183125E+07, 3.818973338809480E+07,
2459846.500000000, A.D. 2022-Sep-24 00:00:00.0000, -6.023531079472082E+08, -2.688906280263637E+07, 3.810924079417013E+07,
2459853.500000000, A.D. 2022-Oct-01 00:00:00.0000, -5.998120284327583E+08, -3.321209709176434E+07, 3.802035936259428E+07,
2459860.500000000, A.D. 2022-Oct-08 00:00:00.0000, -5.971374981005340E+08, -3.952774225311059E+07, 3.792301537376851E+07,
2459867.500000000, A.D. 2022-Oct-15 00:00:00.0000, -5.943285825434395E+08, -4.583449198181587E+07, 3.781713322438738E+07,
2459874.500000000, A.D. 2022-Oct-22 00:00:00.0000, -5.913843243115289E+08, -5.213080233582902E+07, 3.770263564789347E+07,
2459881.500000000, A.D. 2022-Oct-29 00:00:00.0000, -5.883037440707402E+08, -5.841509117534292E+07, 3.757944370218611E+07,
2459888.500000000, A.D. 2022-Nov-05 00:00:00.0000, -5.850858395674412E+08, -6.468573749261290E+07, 3.744747655579543E+07,
2459895.500000000, A.D. 2022-Nov-12 00:00:00.0000, -5.817295843645192E+08, -7.094107935831265E+07, 3.730665135606413E+07,
2459902.500000000, A.D. 2022-Nov-19 00:00:00.0000, -5.782339270700563E+08, -7.717941143163048E+07, 3.715688316715168E+07,
2459909.500000000, A.D. 2022-Nov-26 00:00:00.0000, -5.745977907986302E+08, -8.339898242365469E+07, 3.699808492123019E+07,
2459916.500000000, A.D. 2022-Dec-03 00:00:00.0000, -5.708200727014613E+08, -8.959799251688866E+07, 3.683016736665797E+07,
2459923.500000000, A.D. 2022-Dec-10 00:00:00.0000, -5.668996435220202E+08, -9.577459071285808E+07, 3.665303901047958E+07,
2459930.500000000, A.D. 2022-Dec-17 00:00:00.0000, -5.628353471546351E+08, -1.019268721228960E+08, 3.646660605097448E+07,
2459937.500000000, A.D. 2022-Dec-24 00:00:00.0000, -5.586260000992836E+08, -1.080528752573964E+08, 3.627077228490967E+07,
2459944.500000000, A.D. 2022-Dec-31 00:00:00.0000, -5.542703904579041E+08, -1.141505791947016E+08, 3.606543896558759E+07,
2459951.500000000, A.D. 2023-Jan-07 00:00:00.0000, -5.497672763528186E+08, -1.202178996550617E+08, 3.585050467920929E+07,
2459958.500000000, A.D. 2023-Jan-14 00:00:00.0000, -5.451153857380766E+08, -1.262526834699641E+08, 3.562586546071617E+07,
2459965.500000000, A.D. 2023-Jan-21 00:00:00.0000, -5.403134182535292E+08, -1.322527046058508E+08, 3.539141494917418E+07,
2459972.500000000, A.D. 2023-Jan-28 00:00:00.0000, -5.353600454599306E+08, -1.382156619224967E+08, 3.514704423060122E+07,
2459979.500000000, A.D. 2023-Feb-04 00:00:00.0000, -5.302539096697202E+08, -1.441391756212648E+08, 3.489264163513276E+07,
2459986.500000000, A.D. 2023-Feb-11 00:00:00.0000, -5.249936231750457E+08, -1.500207825588913E+08, 3.462809263767786E+07,
2459993.500000000, A.D. 2023-Feb-18 00:00:00.0000, -5.195777679441676E+08, -1.558579312310785E+08, 3.435327980095892E+07,
2460000.500000000, A.D. 2023-Feb-25 00:00:00.0000, -5.140048955330269E+08, -1.616479765670901E+08, 3.406808272410971E+07,
2460007.500000000, A.D. 2023-Mar-04 00:00:00.0000, -5.082735271206958E+08, -1.673881744939213E+08, 3.377237798961326E+07,
2460014.500000000, A.D. 2023-Mar-11 00:00:00.0000, -5.023821536523219E+08, -1.730756762449094E+08, 3.346603910671275E+07,
2460021.500000000, A.D. 2023-Mar-18 00:00:00.0000, -4.963292360563402E+08, -1.787075224355976E+08, 3.314893644374745E+07,
2460028.500000000, A.D. 2023-Mar-25 00:00:00.0000, -4.901132053483998E+08, -1.842806369251636E+08, 3.282093712782085E+07,
2460035.500000000, A.D. 2023-Apr-01 00:00:00.0000, -4.837324622153622E+08, -1.897918200386421E+08, 3.248190490602262E+07,
2460042.500000000, A.D. 2023-Apr-08 00:00:00.0000, -4.771853767148317E+08, -1.952377398909690E+08, 3.213170012583432E+07,
2460049.500000000, A.D. 2023-Apr-15 00:00:00.0000, -4.704702904500865E+08, -2.006149228827028E+08, 3.177017995981795E+07,
2460056.500000000, A.D. 2023-Apr-22 00:00:00.0000, -4.635855194383796E+08, -2.059197463806794E+08, 3.139719846054609E+07,
2460063.500000000, A.D. 2023-Apr-29 00:00:00.0000, -4.565293549690205E+08, -2.111484312882909E+08, 3.101260638057785E+07,
2460070.500000000, A.D. 2023-May-06 00:00:00.0000, -4.493000642463183E+08, -2.162970326777635E+08, 3.061625106619098E+07,
2460077.500000000, A.D. 2023-May-13 00:00:00.0000, -4.418958918337681E+08, -2.213614293284100E+08, 3.020797644327113E+07,
2460084.500000000, A.D. 2023-May-20 00:00:00.0000, -4.343150617117549E+08, -2.263373126089614E+08, 2.978762303587727E+07,
2460091.500000000, A.D. 2023-May-27 00:00:00.0000, -4.265557798093791E+08, -2.312201746757399E+08, 2.935502799988217E+07,
2460098.500000000, A.D. 2023-Jun-03 00:00:00.0000, -4.186162370145986E+08, -2.360052958974049E+08, 2.891002517150625E+07,
2460105.500000000, A.D. 2023-Jun-10 00:00:00.0000, -4.104946127086592E+08, -2.406877314511041E+08, 2.845244513082112E+07,
2460112.500000000, A.D. 2023-Jun-17 00:00:00.0000, -4.021890788146546E+08, -2.452622970761017E+08, 2.798211527100222E+07,
2460119.500000000, A.D. 2023-Jun-24 00:00:00.0000, -3.936978041304697E+08, -2.497235538507034E+08, 2.749885985302705E+07,
2460126.500000000, A.D. 2023-Jul-01 00:00:00.0000, -3.850189587973227E+08, -2.540657910812010E+08, 2.700250009564489E+07,
2460133.500000000, A.D. 2023-Jul-08 00:00:00.0000, -3.761507206988441E+08, -2.582830063923333E+08, 2.649285452773622E+07,
2460140.500000000, A.D. 2023-Jul-15 00:00:00.0000, -3.670912852077690E+08, -2.623688857553273E+08, 2.596973949648713E+07,
2460147.500000000, A.D. 2023-Jul-22 00:00:00.0000, -3.578388749220326E+08, -2.663167843885748E+08, 2.543296943289962E+07,
$$EOE